OBJECT_NAME,OBJECT_ID,EPOCH,MEAN_MOTION,ECCENTRICITY,INCLINATION,RA_OF_ASC_NODE,ARG_OF_PERICENTER,MEAN_ANOMALY,EPHEMERIS_TYPE,CLASSIFICATION_TYPE,NORAD_CAT_ID,ELEMENT_SET_NO,REV_AT_EPOCH,BSTAR,MEAN_MOTION_DOT,MEAN_MOTION_DDOT
STARLINK-37247,2026-154S,2026-07-24T06:52:33.686400,15.81351306,.00005969,53.1575,247.2480,293.4509,66.6451,0,U,69835,999,425,.29796605E-2,.647907E-2,0
STARLINK-37569,2026-154T,2026-07-24T06:51:28.219392,15.81165366,.00031007,53.1577,247.2431,163.4308,196.6817,0,U,69836,999,425,.27129304E-2,.58001E-2,0
STARLINK-37587,2026-154U,2026-07-24T06:50:23.631936,15.81280008,.00021298,53.1572,247.2372,171.9587,188.1471,0,U,69837,999,425,.29065564E-2,.628328E-2,0
STARLINK-37590,2026-154V,2026-07-24T06:49:18.832800,15.81125990,.00012375,53.1573,247.2329,152.0619,208.0471,0,U,69838,999,425,.15861547E-2,.328365E-2,0
STARLINK-37589,2026-154W,2026-07-24T06:48:13.990464,15.81266607,.00021241,53.1568,247.2281,172.6569,187.4485,0,U,69839,999,425,.28171354E-2,.60708E-2,0
STARLINK-37487,2026-154X,2026-07-22T20:26:52.248768,15.80944959,.00016496,53.1583,253.9198,78.5664,281.5544,0,U,69840,999,403,.13890497E-2,.283587E-2,0
STARLINK-37433,2026-154Y,2026-07-24T06:00:02.000160,15.80908831,.00010703,53.1592,246.9157,82.3487,318.1524,0,U,69841,999,423,-.27995072E-3,-.55688E-3,0
STARLINK-37588,2026-154Z,2026-07-24T07:16:30.304128,15.81127724,.0001648,53.1581,246.6128,122.8602,237.2580,0,U,69842,999,426,.19108378E-2,.399047E-2,0
STARLINK-37579,2026-154AA,2026-07-24T07:16:54.370848,15.81135482,.00002738,53.1589,246.6146,198.6904,161.4109,0,U,69843,999,426,.24302621E-2,.514953E-2,0
STARLINK-37584,2026-154AB,2026-07-24T07:15:55.958400,15.81240455,.00022682,53.1587,246.6096,180.6864,179.4156,0,U,69844,999,426,.28823793E-2,.62145E-2,0
STARLINK-37606,2026-154AC,2026-07-24T07:14:39.333696,15.80901619,.00017707,53.1578,246.6016,36.2760,323.8383,0,U,69845,999,426,.23031432E-2,.480729E-2,0
STARLINK-37603,2026-154AD,2026-07-24T07:13:46.942464,15.80991315,.00019367,53.1581,246.5972,135.8454,224.2723,0,U,69846,999,426,.12223236E-2,.24899E-2,0
STARLINK-37595,2026-154AE,2026-07-24T06:00:02.000160,15.77060777,.00010852,53.1593,246.8554,67.5842,0.9973,0,U,69847,999,413,-.16965785E-1,-.2422515E-1,0
QIANFAN-219,2026-155A,2026-07-24T06:43:29.279136,14.23743143,.00313117,89.0060,59.9130,191.1262,168.9241,0,U,69848,999,267,.99084731E-4,.242E-5,0
QIANFAN-220,2026-155B,2026-07-24T06:14:10.015296,14.17599781,.00303672,89.0059,59.9283,191.8504,168.1974,0,U,69849,999,266,.93320455E-4,.205E-5,0
QIANFAN-221,2026-155C,2026-07-24T06:30:46.713600,14.26650378,.00313841,89.0059,59.9115,192.6085,167.4328,0,U,69850,999,267,.1000231E-3,.257E-5,0
QIANFAN-222,2026-155D,2026-07-24T05:59:49.174080,14.18564243,.00295519,89.0060,59.9270,192.9876,167.0556,0,U,69851,999,266,.94361878E-4,.21E-5,0
QIANFAN-223,2026-155E,2026-07-24T05:51:41.019264,14.18586815,.00294397,89.0063,59.9266,192.4649,167.5816,0,U,69852,999,266,.94676988E-4,.211E-5,0
QIANFAN-224,2026-155F,2026-07-24T05:41:17.596608,14.20221402,.00304737,89.0048,59.9230,192.8887,167.1528,0,U,69853,999,266,.10278493E-3,.235E-5,0
QIANFAN-225,2026-155G,2026-07-24T05:40:46.180704,14.19333498,.0029856,89.0059,59.9248,192.1203,167.9272,0,U,69854,999,266,.93093615E-4,.211E-5,0
QIANFAN-226,2026-155H,2026-07-24T05:37:17.879808,14.19637753,.00306231,89.0059,59.9244,192.4824,167.5611,0,U,69855,999,266,.92911225E-4,.211E-5,0
QIANFAN-227,2026-155J,2026-07-24T07:09:38.388672,14.19929583,.00305652,89.0059,59.9157,191.8058,168.2419,0,U,69856,999,267,.93972341E-4,.215E-5,0
QIANFAN-228,2026-155K,2026-07-24T05:24:41.335488,14.20223357,.00303641,89.0060,59.9233,192.4754,167.5689,0,U,69857,999,266,.85176061E-4,.197E-5,0
QIANFAN-229,2026-155L,2026-07-24T05:09:57.688128,14.21821467,.0030191,89.0058,59.9215,191.8158,168.2328,0,U,69858,999,266,.97620054E-4,.23E-5,0
QIANFAN-230,2026-155M,2026-07-24T06:08:29.992416,14.17865146,.00295979,89.0054,59.9268,192.7071,167.3376,0,U,69859,999,266,.91173656E-4,.201E-5,0
QIANFAN-231,2026-155N,2026-07-24T05:06:25.482816,14.23685939,.0031464,89.0061,59.9216,191.4068,168.6415,0,U,69860,999,266,.96133666E-4,.235E-5,0
QIANFAN-232,2026-155P,2026-07-24T05:02:11.582592,14.23943529,.00306586,89.0058,59.9206,192.7701,167.2718,0,U,69861,999,266,.91450926E-4,.225E-5,0
QIANFAN-233,2026-155Q,2026-07-24T06:40:53.571648,14.23734524,.00306225,89.0060,59.9128,192.1464,167.8994,0,U,69862,999,267,.95117191E-4,.233E-5,0
QIANFAN-234,2026-155R,2026-07-24T06:36:08.293536,14.24414778,.00305987,89.0060,59.9124,190.9129,169.1404,0,U,69863,999,267,.34422416E-4,.95E-6,0
QIANFAN-235,2026-155S,2026-07-24T06:28:46.763616,14.26767538,.00312667,89.0060,59.9115,192.7270,167.3138,0,U,69864,999,267,.95118376E-4,.246E-5,0
