{"epoch":1784902576,"count":18312,"objects":[{"id":"69835","name":"STARLINK-37247","type":"PAYLOAD","l1":"1 69835U 26154S   26205.28650100  .00647907  00000-0  29797-2 0  9995","l2":"2 69835  53.1575 247.2480 0000597 293.4509  66.6451 15.81351306  4251"},{"id":"69836","name":"STARLINK-37569","type":"PAYLOAD","l1":"1 69836U 26154T   26205.28574328  .00580010  00000-0  27129-2 0  9991","l2":"2 69836  53.1577 247.2431 0003101 163.4308 196.6817 15.81165366  4256"},{"id":"69837","name":"STARLINK-37587","type":"PAYLOAD","l1":"1 69837U 26154U   26205.28499574  .00628328  00000-0  29066-2 0  9998","l2":"2 69837  53.1572 247.2372 0002130 171.9587 188.1471 15.81280008  4253"},{"id":"69838","name":"STARLINK-37590","type":"PAYLOAD","l1":"1 69838U 26154V   26205.28424575  .00328365  00000-0  15862-2 0  9995","l2":"2 69838  53.1573 247.2329 0001237 152.0619 208.0471 15.81125990  4250"},{"id":"69839","name":"STARLINK-37589","type":"PAYLOAD","l1":"1 69839U 26154W   26205.28349526  .00607080  00000-0  28171-2 0  9999","l2":"2 69839  53.1568 247.2281 0002124 172.6569 187.4485 15.81266607  4256"},{"id":"69840","name":"STARLINK-37487","type":"PAYLOAD","l1":"1 69840U 26154X   26203.85199362  .00283587  00000-0  13890-2 0  9997","l2":"2 69840  53.1583 253.9198 0001650  78.5664 281.5544 15.80944959  4039"},{"id":"69841","name":"STARLINK-37433","type":"PAYLOAD","l1":"1 69841U 26154Y   26205.25002315 -.00055688  00000-0 -27995-3 0  9998","l2":"2 69841  53.1592 246.9157 0001070  82.3487 318.1524 15.80908831  4235"},{"id":"69842","name":"STARLINK-37588","type":"PAYLOAD","l1":"1 69842U 26154Z   26205.30312852  .00399047  00000-0  19108-2 0  9999","l2":"2 69842  53.1581 246.6128 0001648 122.8602 237.2580 15.81127724  4260"},{"id":"69843","name":"STARLINK-37579","type":"PAYLOAD","l1":"1 69843U 26154AA  26205.30340707  .00514953  00000-0  24303-2 0  9998","l2":"2 69843  53.1589 246.6146 0000274 198.6904 161.4109 15.81135482  4264"},{"id":"69844","name":"STARLINK-37584","type":"PAYLOAD","l1":"1 69844U 26154AB  26205.30273100  .00621450  00000-0  28824-2 0  9994","l2":"2 69844  53.1587 246.6096 0002268 180.6864 179.4156 15.81240455  4266"},{"id":"69845","name":"STARLINK-37606","type":"PAYLOAD","l1":"1 69845U 26154AC  26205.30184414  .00480729  00000-0  23031-2 0  9991","l2":"2 69845  53.1578 246.6016 0001771  36.2760 323.8383 15.80901619  4260"},{"id":"69846","name":"STARLINK-37603","type":"PAYLOAD","l1":"1 69846U 26154AD  26205.30123776  .00248990  00000-0  12223-2 0  9999","l2":"2 69846  53.1581 246.5972 0001937 135.8454 224.2723 15.80991315  4269"},{"id":"69847","name":"STARLINK-37595","type":"PAYLOAD","l1":"1 69847U 26154AE  26205.25002315 -.02422515  00000-0 -16966-1 0  9997","l2":"2 69847  53.1593 246.8554 0001085  67.5842   0.9973 15.77060777  4135"},{"id":"69848","name":"QIANFAN-219","type":"PAYLOAD","l1":"1 69848U 26155A   26205.28019999  .00000242  00000-0  99085-4 0  9999","l2":"2 69848  89.0060  59.9130 0031312 191.1262 168.9241 14.23743143  2677"},{"id":"69849","name":"QIANFAN-220","type":"PAYLOAD","l1":"1 69849U 26155B   26205.25983814  .00000205  00000-0  93320-4 0  9998","l2":"2 69849  89.0059  59.9283 0030367 191.8504 168.1974 14.17599781  2664"},{"id":"69850","name":"QIANFAN-221","type":"PAYLOAD","l1":"1 69850U 26155C   26205.27137400  .00000257  00000-0  10002-3 0  9996","l2":"2 69850  89.0059  59.9115 0031384 192.6085 167.4328 14.26650378  2679"},{"id":"69851","name":"QIANFAN-222","type":"PAYLOAD","l1":"1 69851U 26155D   26205.24987470  .00000210  00000-0  94362-4 0  9995","l2":"2 69851  89.0060  59.9270 0029552 192.9876 167.0556 14.18564243  2663"},{"id":"69852","name":"QIANFAN-223","type":"PAYLOAD","l1":"1 69852U 26155E   26205.24422476  .00000211  00000-0  94677-4 0  9996","l2":"2 69852  89.0063  59.9266 0029440 192.4649 167.5816 14.18586815  2664"},{"id":"69853","name":"QIANFAN-224","type":"PAYLOAD","l1":"1 69853U 26155F   26205.23700922  .00000235  00000-0  10278-3 0  9991","l2":"2 69853  89.0048  59.9230 0030474 192.8887 167.1528 14.20221402  2663"},{"id":"69854","name":"QIANFAN-225","type":"PAYLOAD","l1":"1 69854U 26155G   26205.23664561  .00000211  00000-0  93094-4 0  9992","l2":"2 69854  89.0059  59.9248 0029856 192.1203 167.9272 14.19333498  2663"},{"id":"69855","name":"QIANFAN-226","type":"PAYLOAD","l1":"1 69855U 26155H   26205.23423472  .00000211  00000-0  92911-4 0  9994","l2":"2 69855  89.0059  59.9244 0030623 192.4824 167.5611 14.19637753  2660"},{"id":"69856","name":"QIANFAN-227","type":"PAYLOAD","l1":"1 69856U 26155J   26205.29836098  .00000215  00000-0  93972-4 0  9995","l2":"2 69856  89.0059  59.9157 0030565 191.8058 168.2419 14.19929583  2671"},{"id":"69857","name":"QIANFAN-228","type":"PAYLOAD","l1":"1 69857U 26155K   26205.22547842  .00000197  00000-0  85176-4 0  9991","l2":"2 69857  89.0060  59.9233 0030364 192.4754 167.5689 14.20223357  2664"},{"id":"69858","name":"QIANFAN-229","type":"PAYLOAD","l1":"1 69858U 26155L   26205.21525102  .00000230  00000-0  97620-4 0  9991","l2":"2 69858  89.0058  59.9215 0030191 191.8158 168.2328 14.21821467  2666"},{"id":"69859","name":"QIANFAN-230","type":"PAYLOAD","l1":"1 69859U 26155M   26205.25590269  .00000201  00000-0  91174-4 0  9998","l2":"2 69859  89.0054  59.9268 0029598 192.7071 167.3376 14.17865146  2664"},{"id":"69860","name":"QIANFAN-231","type":"PAYLOAD","l1":"1 69860U 26155N   26205.21279494  .00000235  00000-0  96134-4 0  9998","l2":"2 69860  89.0061  59.9216 0031464 191.4068 168.6415 14.23685939  2669"},{"id":"69861","name":"QIANFAN-232","type":"PAYLOAD","l1":"1 69861U 26155P   26205.20985628  .00000225  00000-0  91451-4 0  9997","l2":"2 69861  89.0058  59.9206 0030659 192.7701 167.2718 14.23943529  2661"},{"id":"69862","name":"QIANFAN-233","type":"PAYLOAD","l1":"1 69862U 26155Q   26205.27839782  .00000233  00000-0  95117-4 0  9996","l2":"2 69862  89.0060  59.9128 0030622 192.1464 167.8994 14.23734524  2674"},{"id":"69863","name":"QIANFAN-234","type":"PAYLOAD","l1":"1 69863U 26155R   26205.27509599  .00000095  00000-0  34422-4 0  9995","l2":"2 69863  89.0060  59.9124 0030599 190.9129 169.1404 14.24414778  2676"},{"id":"69864","name":"QIANFAN-235","type":"PAYLOAD","l1":"1 69864U 26155S   26205.26998569  .00000246  00000-0  95118-4 0  9991","l2":"2 69864  89.0060  59.9115 0031267 192.7270 167.3138 14.26767538  2678"}]}